OBJECT_NAME,OBJECT_ID,EPOCH,MEAN_MOTION,ECCENTRICITY,INCLINATION,RA_OF_ASC_NODE,ARG_OF_PERICENTER,MEAN_ANOMALY,EPHEMERIS_TYPE,CLASSIFICATION_TYPE,NORAD_CAT_ID,ELEMENT_SET_NO,REV_AT_EPOCH,BSTAR,MEAN_MOTION_DOT,MEAN_MOTION_DDOT
CUTE-1 (CO-55),2003-031E,2026-05-19T00:35:21.418944,14.24315983,.00082791,98.6744,147.9502,270.3136,89.7095,0,U,27844,999,18752,.97947131E-4,.182E-5,0
CUBESAT XI-IV (CO-57),2003-031J,2026-05-18T07:05:37.507200,14.23603354,.00082798,98.6776,146.9670,294.1039,65.9273,0,U,27848,999,18712,.81891215E-4,.143E-5,0
CUBESAT XI-V,2005-043F,2026-05-18T08:51:58.793472,14.72544221,.00129042,98.2951,293.3724,302.7751,57.2212,0,U,28895,999,9736,.12887751E-3,.767E-5,0
CUTE-1.7+APD II (CO-65),2008-021C,2026-05-19T05:03:07.883424,15.09146991,.00105196,97.8271,120.0366,121.5393,238.6864,0,U,32785,999,98082,.19743945E-3,.307E-4,0
CANX-2,2008-021H,2026-05-18T10:41:39.548832,15.05378382,.00115144,97.8621,117.6550,137.7182,222.4934,0,U,32790,999,98033,.12144748E-3,.1678E-4,0
SEEDS II (CO-66),2008-021J,2026-05-19T06:28:33.417408,15.31665127,.0004761,97.7523,135.8128,71.9578,288.2181,0,U,32791,999,98286,.3847101E-3,.11689E-3,0
SWISSCUBE,2009-051B,2026-05-19T05:27:35.745984,14.62418661,.00057786,98.4054,46.6101,312.4611,47.6100,0,U,35932,999,88492,.1264458E-3,.59E-5,0
BEESAT-1,2009-051C,2026-05-19T05:19:37.255872,14.61667178,.00045931,98.3983,46.3002,331.8843,28.2109,0,U,35933,999,88495,.10959763E-3,.496E-5,0
ITUPSAT1,2009-051E,2026-05-19T04:30:03.017088,14.60391532,.00069974,98.4068,45.4878,339.3599,20.7317,0,U,35935,999,88450,.10392571E-3,.454E-5,0
TISAT 1,2010-035E,2026-05-19T07:06:22.148352,15.30501637,.00029502,98.0708,83.3131,41.6426,318.5037,0,U,36799,999,86328,.40672334E-3,.11916E-3,0
AEROCUBE 4.5A,2012-048K,2026-05-19T07:00:18.565056,15.79416106,.00184047,64.6281,131.2318,216.1891,143.8019,0,U,38767,999,36807,.67964341E-3,.12662E-2,0
STRAND-1,2013-009E,2026-05-19T00:33:54.873792,14.37144285,.00078408,98.3916,319.9771,325.2771,34.7904,0,U,39090,999,69287,.67750228E-4,.159E-5,0
BRITE-AUSTRIA,2013-009F,2026-05-19T00:34:24.751776,14.36529341,.00095562,98.3987,319.1827,333.7343,26.3358,0,U,39091,999,69286,.48733638E-4,.1E-5,0
NEE-01 PEGASO,2013-018B,2026-05-19T07:46:39.950400,14.93499567,.00113636,98.1186,282.5303,257.4653,102.5294,0,U,39151,999,70639,.13381403E-3,.1348E-4,0
POPACS 2,2013-055E,2026-05-19T02:45:22.801536,14.90525258,.04185623,80.9908,177.4570,287.3188,68.2651,0,U,39269,999,65888,.16216703E-3,.9433E-4,0
POPACS 3,2013-055F,2026-05-19T07:41:30.601248,14.55394747,.05547408,81.0018,260.4648,157.7762,204.8535,0,U,39270,999,63435,.27473548E-3,.11564E-3,0
ZACUBE-1 (TSHEPISOSAT),2013-066B,2026-05-19T03:26:33.806976,15.00943817,.0041065,97.8123,101.3230,350.4398,9.6039,0,U,39417,999,67637,.23244993E-3,.2951E-4,0
WNISAT-1,2013-066H,2026-05-19T06:01:12.061920,14.58021968,.01622442,97.7167,290.4667,323.4542,35.5673,0,U,39423,999,66251,.58452429E-4,.27E-5,0
TRITON-1,2013-066M,2026-05-19T06:08:47.244768,14.81571946,.00895311,97.8271,49.7223,329.7230,29.8827,0,U,39427,999,66980,.27931929E-3,.2293E-4,0
GOMX-1,2013-066Q,2026-05-19T07:30:30.803328,14.69332878,.01290027,97.6496,341.5969,169.5818,190.8109,0,U,39430,999,66567,.19153083E-3,.1234E-4,0
CUBEBUG-2 (LO-74),2013-066AA,2026-05-19T04:33:04.471776,14.93512493,.00592524,97.8896,88.0549,122.6964,237.9989,0,U,39440,999,67266,.19363958E-3,.2048E-4,0
NEE-02 KRYSAOR,2013-066AB,2026-05-19T06:22:11.847360,14.86495337,.00665973,97.8886,78.6919,163.2693,197.0741,0,U,39441,999,67190,.10953375E-3,.95E-5,0
FUNCUBE-1 (AO-73),2013-066AE,2026-05-18T11:42:05.724864,15.09070822,.00348969,97.8264,109.3260,306.8242,52.9786,0,U,39444,999,67518,.23785157E-3,.3751E-4,0
UWE-3,2013-066AG,2026-05-18T14:28:00.144480,14.96745846,.00504617,97.8682,94.4880,59.2487,301.3689,0,U,39446,999,67315,.23180145E-3,.2656E-4,0
BRITE-CA1 (TORONTO),2014-033L,2026-05-19T07:07:40.114848,14.72633047,.00788068,97.9699,268.7648,10.4510,349.8313,0,U,40020,999,63796,.64130436E-4,.375E-5,0
DUCHIFAT-1,2014-033M,2026-05-19T02:57:37.636128,15.59011194,.00062066,98.0491,194.3373,171.2568,188.8795,0,U,40021,999,65121,.78320212E-3,.61236E-3,0
NANOSATC-BR1,2014-033Q,2026-05-19T01:18:44.993952,15.30447318,.00016472,98.0737,168.8823,285.8827,74.2230,0,U,40024,999,64952,.36091967E-3,.10544E-3,0
QB50P1,2014-033R,2026-05-19T06:41:03.533568,15.17765963,.00077118,98.0974,148.4085,335.9762,24.1109,0,U,40025,999,64864,.24013209E-3,.4776E-4,0
QB50P2,2014-033Y,2026-05-18T16:59:12.303456,15.14744084,.00056445,98.0753,133.7642,277.6790,82.3799,0,U,40032,999,64820,.22121616E-3,.4027E-4,0
PERSEUS-M2,2014-033AD,2026-05-19T07:00:10.667232,14.95417114,.00132569,97.9964,89.2496,41.3871,318.8351,0,U,40037,999,64646,.15261267E-3,.1628E-4,0
